STARLINK-32090          
1 59691U 24086K   26068.01197643  .00000826  00000+0  39508-4 0  9997
2 59691  42.9985  67.5931 0000568 296.4773  63.6020 15.27581318103964
NUSAT-48 (HENRIETTA LE*)
1 60498U 24149AG  26068.80506098  .00012988  00000+0  45212-3 0  9999
2 60498  97.3923 150.8264 0002754 263.3026  96.7901 15.29812597 86946
